[{"OBJECT_NAME":"SMDC ONE 2.4","OBJECT_ID":"2013-072H","EPOCH":"2026-03-09T13:26:07.283328","MEAN_MOTION":15.15767863,"ECCENTRICITY":0.0137633,"INCLINATION":120.4883,"RA_OF_ASC_NODE":328.0945,"ARG_OF_PERICENTER":267.6479,"MEAN_ANOMALY":90.8828,"EPHEMERIS_TYPE":0,"CLASSIFICATION_TYPE":"U","NORAD_CAT_ID":39469,"ELEMENT_SET_NO":999,"REV_AT_EPOCH":10271,"BSTAR":0.00065974,"MEAN_MOTION_DOT":0.00015821,"MEAN_MOTION_DDOT":0},{"OBJECT_NAME":"FENGYUN 1C DEB","OBJECT_ID":"1999-025LG","EPOCH":"2026-03-09T12:14:50.254368","MEAN_MOTION":14.67697961,"ECCENTRICITY":0.01210461,"INCLINATION":99.4046,"RA_OF_ASC_NODE":267.5239,"ARG_OF_PERICENTER":24.1926,"MEAN_ANOMALY":28.9506,"EPHEMERIS_TYPE":0,"CLASSIFICATION_TYPE":"U","NORAD_CAT_ID":29982,"ELEMENT_SET_NO":999,"REV_AT_EPOCH":1556,"BSTAR":0.00049805188,"MEAN_MOTION_DOT":3.096e-5,"MEAN_MOTION_DDOT":0}]
